#aV2014  6  1  0  0  0.00000000     288 DD+AD WGS84 FIT  NGA
## 1795      0.00000000   300.00000000 56809 0.0000000000000
+   31     1  2  3  4  5  6  7  8 10 11 12 13 14 15 16 17 18
+         19 20 21 22 23 24 25 26 27 28 29 30 31 32  0  0  0
+          0  0  0  0  0  0  0  0  0  0  0  0  0  0  0  0  0
+          0  0  0  0  0  0  0  0  0  0  0  0  0  0  0  0  0
+          0  0  0  0  0  0  0  0  0  0  0  0  0  0  0  0  0
++         2  2  2  2  2  2  2  2  2  2  2  2  2  2  2  2  2
++         2  2  2  2  2  2  2  2  2  2  2  2  2  2  0  0  0
++         0  0  0  0  0  0  0  0  0  0  0  0  0  0  0  0  0
++         0  0  0  0  0  0  0  0  0  0  0  0  0  0  0  0  0
++         0  0  0  0  0  0  0  0  0  0  0  0  0  0  0  0  0
%c cc cc ccc ccc cccc cccc cccc cccc ccccc ccccc ccccc ccccc
%c cc cc ccc ccc cccc cccc cccc cccc ccccc ccccc ccccc ccccc
%f  0.0000000  0.000000000  0.00000000000  0.000000000000000
%f  0.0000000  0.000000000  0.00000000000  0.000000000000000
%i    0    0    0    0      0      0      0      0         0
%i    0    0    0    0      0      0      0      0         0
/*      NGA, ST. LOUIS,MO.                                  
/*   EPHEMERIS COMPUTED FROM  1 DAYS OF DATA                
/*   EPOCHA SMOOTHER                                       
/* CCCCCCCCCCCCCCCCCCCCCCCCCCCCCCCCCCCCCCCCCCCCCCCCCCCCCCCCC
*  2014  6  1  2 45  0.00000000
P  1  22933.025233  13224.002298   2935.082891     13.991246                    
V  1   1574.311665   4335.805596 -31366.647068      0.011271                    
P  2  -7769.299416 -19570.165437  16764.643915    498.553849                    
V  2  18333.077087   9596.041704  19562.636788      0.021704                    
P  3   7152.169837  14372.538143 -21705.536963    372.247550                    
V  3 -21904.421304  14682.643494   2723.107124      0.048935                    
P  4   6707.809360 -14147.654298  21131.348039      7.015187                    
V  4  23271.517101  14964.844240   2823.387971      0.001594                    
P  5  -2966.868652 -25491.131741  -6534.071641   -368.976915                    
V  5   3792.958450  -8066.269308  30067.998095      0.026754                    
P  6  13828.639580  -8548.623412  21176.374608      7.244879                    
V  6  21698.379019  15408.168133  -7958.615412      0.025450                    
P  7  21714.311492   2774.570932 -15206.072203    352.614812                    
V  7  14790.850483  12455.184315  22953.549158      0.042482                    
P  8  16565.047111  -3151.760073 -20526.359032     13.918068                    
V  8  19433.138444  17524.452921  12303.585876      0.003071                    
P 10   8759.595240 -22905.476310   9306.716763   -127.894942                    
V 10   2411.744108  12715.635943  28431.441611     -0.015572                    
P 11  22006.766201  13016.320038  -8056.781758   -493.596673                    
V 11 -10487.066989   1544.121840 -27650.642514     -0.031578                    
P 12 -11420.278451 -13883.257855  19558.729543    208.610356                    
V 12   3600.550297 -24598.332736 -15086.303020      0.024803                    
P 13  25213.972290  -3524.299163   7731.419166     -5.911132                    
V 13  -8665.138679   5265.144742  29982.187281     -0.038575                    
P 14 -20406.399793  14544.138089   8787.064929    167.732336                    
V 14 -10995.212050   1795.197276 -29386.735122     -0.034806                    
P 15 -14386.364757  -9329.956236 -20404.961101   -182.721838                    
V 15  22332.855641 -12961.568694  -9555.528180     -0.021770                    
P 16   1262.924326  25423.893732  -6932.194673   -215.533042                    
V 16  -3258.784534   8444.183698  30953.968093      0.020124                    
P 17  19571.698824 -15367.907722   9212.292855    -97.757927                    
V 17  11425.284968  -2284.670893 -29116.409728     -0.030264                    
P 18 -15374.245760   7582.225848 -19755.861786    322.743227                    
V 18    122.139696 -26357.950974 -10314.205397      0.023152                    
P 19  11472.813479  11409.675701 -21281.396959   -460.140744                    
V 19 -24757.154828   9717.265897  -7747.068960     -0.021988                    
P 20  14442.397530  10733.886032  19371.310471    195.291254                    
V 20  -1811.503660  25086.749632 -12365.126035      0.039508                    
P 21 -20490.759433   1029.744915 -16464.158517   -364.397055                    
V 21 -17095.251923 -14092.313574  19191.662877     -0.021942                    
P 22 -10947.181934  20371.156221 -12703.394134    238.617487                    
V 22  -2279.551817 -16811.575595 -24745.209135      0.028522                    
P 23  20155.510502   3979.693434  17169.098470    -25.095033                    
V 23 -18699.321569  10640.289818  19187.548889     -0.030672                    
P 24 -21503.041490 -15599.146067  -1614.568507    -29.341746                    
V 24   3263.801170  -1275.056325 -31511.756053     -0.006217                    
P 25 -14863.212656    -20.697974  21933.296721     24.505687                    
V 25   1797.963812 -27929.762585   1319.670797      0.003620                    
P 26  -1658.912748 -15416.807592 -22194.598679     61.015587                    
V 26  25102.559268  -8832.603685   4675.541207     -0.120465                    
P 27   -937.043815  16512.705575 -20775.931785    -13.226459                    
V 27 -24073.530066  10796.362789   9729.334988      0.024003                    
P 28  12564.832069 -17069.726599 -15318.633482    359.004625                    
V 28  -1123.232860  20595.919690 -23104.986098      0.027721                    
P 29 -24715.496553   3799.271854   8917.937103    536.543414                    
V 29   9473.530907  -6548.585186  29214.490200      0.026657                    
P 30  15719.064596  -5938.588129 -20586.313664    -19.254000                    
V 30  19837.597036  17012.064598  10212.283161     -0.059595                    
P 31  -3347.774021  15414.488379  21467.161441    334.147469                    
V 31 -22202.660184 -15223.898746   7821.550873     -0.001073                    
P 32   6233.323153  22362.433323  13438.313276   -416.682599                    
V 32  -4744.757739  16249.677583 -24406.801942      0.082581                    
EOF
